<?xml version="1.0" encoding="UTF-8"?>
<kml xmlns="http://www.opengis.net/kml/2.2" xmlns:gx="http://www.google.com/kml/ext/2.2">
    <Document id="25">
        <Style id="28">
            <LineStyle id="29">
                <color>ffff0000</color>
                <colorMode>normal</colorMode>
                <width>5</width>
            </LineStyle>
        </Style>
        <open>1</open>
        <Placemark id="27">
            <name>Boat trajectory</name>
            <styleUrl>#28</styleUrl>
            <LineString id="26">
                <coordinates>-1.890294837951,52.486999511718,0.0 -1.890294837951,52.486999511718,0.0 -1.890294837951,52.486999511718,0.0 -1.890294837951,52.486999511718,0.0 -1.890294837951,52.486999511718,0.0 -1.890294837951,52.486999511718,0.0 -1.890294837951,52.486999511718,0.0 -1.890294837951,52.486999511718,0.0 -1.890294837951,52.486999511718,0.0 -1.890294837951,52.486999511718,0.0 -1.890294837951,52.486999511718,0.0 -1.890294837951,52.486999511718,0.0 -1.890294837951,52.486999511718,0.0 -1.890294837951,52.486999511718,0.0 -1.890294837951,52.486999511718,0.0 -1.890294837951,52.486999511718,0.0 -1.890294837951,52.486999511718,0.0 -1.890294837951,52.486999511718,0.0 -1.890294837951,52.486999511718,0.0 -1.890294837951,52.486999511718,0.0 -1.890294837951,52.486999511718,0.0 -1.890294837951,52.486999511718,0.0 -1.890294837951,52.486999511718,0.0 -1.890294837951,52.486999511718,0.0 -1.890294837951,52.486999511718,0.0 -1.890294837951,52.486999511718,0.0 -1.890294837951,52.486999511718,0.0 -1.890294837951,52.486999511718,0.0 -1.890294837951,52.486999511718,0.0 -1.890294837951,52.486999511718,0.0 -1.890294837951,52.486999511718,0.0 -1.890294837951,52.486999511718,0.0 -1.890294837951,52.486999511718,0.0 -1.890294837951,52.486999511718,0.0 -1.890294837951,52.486999511718,0.0 -1.890294837951,52.486999511718,0.0 -1.890294837951,52.486999511718,0.0 -1.890294837951,52.486999511718,0.0 -1.890294837951,52.486999511718,0.0 -1.890294837951,52.486999511718,0.0 -1.890294837951,52.486999511718,0.0 -1.890294837951,52.486999511718,0.0 -1.890294837951,52.486999511718,0.0 -1.890294837951,52.486999511718,0.0 -1.890294837951,52.486999511718,0.0 -1.890294837951,52.486999511718,0.0 -1.890294837951,52.486999511718,0.0 -1.890294837951,52.486999511718,0.0 -1.890294837951,52.486999511718,0.0 -1.890294837951,52.486999511718,0.0 -1.890294837951,52.486999511718,0.0 -1.890294837951,52.486999511718,0.0 -1.890294837951,52.486999511718,0.0 -1.890294837951,52.486999511718,0.0 -1.890294837951,52.486999511718,0.0 -1.890294837951,52.486999511718,0.0 -1.890294837951,52.486999511718,0.0 -1.890294837951,52.486999511718,0.0 -1.890294837951,52.486999511718,0.0 -1.890294837951,52.486999511718,0.0 -1.890294837951,52.486999511718,0.0 -1.890294837951,52.486999511718,0.0 -1.890294837951,52.486999511718,0.0 -1.890294837951,52.486999511718,0.0 -1.890294837951,52.486999511718,0.0 -1.890294837951,52.486999511718,0.0 -1.890294837951,52.486999511718,0.0 -1.890294837951,52.486999511718,0.0 -1.890294837951,52.486999511718,0.0 -1.890294837951,52.486999511718,0.0 -1.890294837951,52.486999511718,0.0 -1.890294837951,52.486999511718,0.0 -1.890294837951,52.486999511718,0.0 -1.890294837951,52.486999511718,0.0 -1.890294837951,52.486999511718,0.0 -1.890294837951,52.486999511718,0.0 -1.890294837951,52.486999511718,0.0 -1.890294837951,52.486999511718,0.0 -1.890294837951,52.486999511718,0.0 -1.890294837951,52.486999511718,0.0 -1.890294837951,52.486999511718,0.0 -1.890294837951,52.486999511718,0.0 -1.890294837951,52.486999511718,0.0 -1.890294837951,52.486999511718,0.0 -1.890294837951,52.486999511718,0.0 -1.890294837951,52.486999511718,0.0 -1.890294837951,52.486999511718,0.0 -1.890294837951,52.486999511718,0.0 -1.890294837951,52.486999511718,0.0 -1.890294837951,52.486999511718,0.0 -1.890294837951,52.486999511718,0.0 -1.890294837951,52.486999511718,0.0 -1.890294837951,52.486999511718,0.0 -1.890294837951,52.486999511718,0.0 -1.890294837951,52.486999511718,0.0 -1.890294837951,52.486999511718,0.0 -1.890294837951,52.486999511718,0.0 -1.890294837951,52.486999511718,0.0 -1.890294837951,52.486999511718,0.0 -1.890294837951,52.486999511718,0.0 -1.890294837951,52.486999511718,0.0 -1.890294837951,52.486999511718,0.0 -1.890294837951,52.486999511718,0.0 -1.890294837951,52.486999511718,0.0 -1.890294837951,52.486999511718,0.0 -1.890294837951,52.486999511718,0.0 -1.890294837951,52.486999511718,0.0 -1.890294837951,52.486999511718,0.0 -1.890294837951,52.486999511718,0.0 -1.890294837951,52.486999511718,0.0 -1.890294837951,52.486999511718,0.0 -1.890294837951,52.486999511718,0.0 -1.890294837951,52.486999511718,0.0 -1.890294837951,52.486999511718,0.0 -1.890294837951,52.486999511718,0.0 -1.890294837951,52.486999511718,0.0 -1.890294837951,52.486999511718,0.0 -1.890294837951,52.486999511718,0.0 -1.890294837951,52.486999511718,0.0 -1.890294837951,52.486999511718,0.0 -1.890294837951,52.486999511718,0.0 -1.890294837951,52.486999511718,0.0 -1.890294837951,52.486999511718,0.0 -1.890294837951,52.486999511718,0.0 -1.890294837951,52.486999511718,0.0 -1.890294837951,52.486999511718,0.0 -1.890294837951,52.486999511718,0.0 -1.890294837951,52.486999511718,0.0 -1.890294837951,52.486999511718,0.0 -1.890294837951,52.486999511718,0.0 -1.890294837951,52.486999511718,0.0 -1.890294837951,52.486999511718,0.0 -1.890294837951,52.486999511718,0.0 -1.890294837951,52.486999511718,0.0 -1.890294837951,52.486999511718,0.0 -1.890294837951,52.486999511718,0.0 -1.890294837951,52.486999511718,0.0 -1.890294837951,52.486999511718,0.0 -1.890294837951,52.486999511718,0.0 -1.890294837951,52.486999511718,0.0 -1.890294837951,52.486999511718,0.0 -1.890294837951,52.486999511718,0.0 -1.890294837951,52.486999511718,0.0 -1.890294837951,52.486999511718,0.0 -1.890294837951,52.486999511718,0.0 -1.890294837951,52.486999511718,0.0 -1.890294837951,52.486999511718,0.0 -1.890294837951,52.486999511718,0.0 -1.890294837951,52.486999511718,0.0 -1.890294837951,52.486999511718,0.0 -1.890294837951,52.486999511718,0.0 -1.890294837951,52.486999511718,0.0 -1.890294837951,52.486999511718,0.0 -1.890294837951,52.486999511718,0.0 -1.890294837951,52.486999511718,0.0 -1.890294837951,52.486999511718,0.0 -1.890294837951,52.486999511718,0.0 -1.890294837951,52.486999511718,0.0 -1.890294837951,52.486999511718,0.0 -1.890294837951,52.486999511718,0.0 -1.890294837951,52.486999511718,0.0 -1.890294837951,52.486999511718,0.0 -1.890294837951,52.486999511718,0.0 -1.890294837951,52.486999511718,0.0 -1.890294837951,52.486999511718,0.0 -1.890294837951,52.486999511718,0.0 -1.890294837951,52.486999511718,0.0 -1.890294837951,52.486999511718,0.0 -1.890294837951,52.486999511718,0.0 -1.890294837951,52.486999511718,0.0 -1.890294837951,52.486999511718,0.0 -1.890294837951,52.486999511718,0.0 -1.890294837951,52.486999511718,0.0 -1.890294837951,52.486999511718,0.0 -1.890294837951,52.486999511718,0.0 -1.890294837951,52.486999511718,0.0 -1.890294837951,52.486999511718,0.0 -1.890294837951,52.486999511718,0.0 -1.890294837951,52.486999511718,0.0 -1.890294837951,52.486999511718,0.0 -1.890294837951,52.486999511718,0.0 -1.890294837951,52.486999511718,0.0 -1.890294837951,52.486999511718,0.0 -1.890294837951,52.486999511718,0.0 -1.890294837951,52.486999511718,0.0 -1.890294837951,52.486999511718,0.0 -1.890294837951,52.486999511718,0.0 -1.890294837951,52.486999511718,0.0 -1.890294837951,52.486999511718,0.0 -1.890294837951,52.486999511718,0.0 -1.890294837951,52.486999511718,0.0 -1.890294837951,52.486999511718,0.0 -1.890294837951,52.486999511718,0.0 -1.890294837951,52.486999511718,0.0 -1.890294837951,52.486999511718,0.0 -1.890294837951,52.486999511718,0.0 -1.890294837951,52.486999511718,0.0 -1.890294837951,52.486999511718,0.0 -1.890294837951,52.486999511718,0.0 -1.890294837951,52.486999511718,0.0 -1.890294837951,52.486999511718,0.0 -1.890294837951,52.486999511718,0.0 -1.890294837951,52.486999511718,0.0 -1.890294837951,52.486999511718,0.0 -1.890294837951,52.486999511718,0.0 -1.890294837951,52.486999511718,0.0 -1.890294837951,52.486999511718,0.0 -1.890294837951,52.486999511718,0.0 -1.890294837951,52.486999511718,0.0 -1.890294837951,52.486999511718,0.0 -1.890294837951,52.486999511718,0.0 -1.890294837951,52.486999511718,0.0 -1.890294837951,52.486999511718,0.0 -1.890294837951,52.486999511718,0.0 -1.890294837951,52.486999511718,0.0 -1.890294837951,52.486999511718,0.0 -1.890294837951,52.486999511718,0.0 -1.890294837951,52.486999511718,0.0 -1.890294837951,52.486999511718,0.0 -1.890294837951,52.486999511718,0.0 -1.890294837951,52.486999511718,0.0 -1.890294837951,52.486999511718,0.0 -1.890294837951,52.486999511718,0.0 -1.890294837951,52.486999511718,0.0 -1.890294837951,52.486999511718,0.0 -1.890294837951,52.486999511718,0.0 -1.890294837951,52.486999511718,0.0 -1.890294837951,52.486999511718,0.0 -1.890091705322,52.486785888671,0.0 -1.890091705322,52.486785888671,0.0 -1.890091705322,52.486785888671,0.0 -1.890091705322,52.486785888671,0.0 -1.890091705322,52.486785888671,0.0 -1.890091705322,52.486785888671,0.0 -1.890091705322,52.486785888671,0.0 -1.890091705322,52.486785888671,0.0 -1.890091705322,52.486785888671,0.0 -1.890091705322,52.486785888671,0.0 -1.890091705322,52.486785888671,0.0 -1.890091705322,52.486785888671,0.0 -1.890091705322,52.486785888671,0.0 -1.890091705322,52.486785888671,0.0 -1.890091705322,52.486785888671,0.0 -1.890091705322,52.486785888671,0.0 -1.890091705322,52.486785888671,0.0 -1.890091705322,52.486785888671,0.0 -1.890091705322,52.486785888671,0.0 -1.890091705322,52.486785888671,0.0 -1.890091705322,52.486785888671,0.0 -1.890091705322,52.486785888671,0.0 -1.890091705322,52.486785888671,0.0 -1.890091705322,52.486785888671,0.0 -1.890091705322,52.486785888671,0.0 -1.890091705322,52.486785888671,0.0 -1.890091705322,52.486785888671,0.0 -1.890091705322,52.486785888671,0.0 -1.890091705322,52.486785888671,0.0 -1.890091705322,52.486785888671,0.0 -1.890091705322,52.486785888671,0.0 -1.890091705322,52.486785888671,0.0 -1.890091705322,52.486785888671,0.0 -1.890091705322,52.486785888671,0.0 -1.890091705322,52.486785888671,0.0 -1.890091705322,52.486785888671,0.0 -1.890091705322,52.486785888671,0.0 -1.890091705322,52.486785888671,0.0 -1.890091705322,52.486785888671,0.0 -1.890091705322,52.486785888671,0.0 -1.890091705322,52.486785888671,0.0 -1.890091705322,52.486785888671,0.0 -1.890091705322,52.486785888671,0.0 -1.890091705322,52.486785888671,0.0 -1.890091705322,52.486785888671,0.0 -1.890091705322,52.486785888671,0.0 -1.890091705322,52.486785888671,0.0 -1.890091705322,52.486785888671,0.0 -1.890091705322,52.486785888671,0.0 -1.890091705322,52.486785888671,0.0 -1.890091705322,52.486785888671,0.0 -1.890091705322,52.486785888671,0.0 -1.890091705322,52.486785888671,0.0 -1.890091705322,52.486785888671,0.0 -1.890091705322,52.486785888671,0.0 -1.890091705322,52.486785888671,0.0 -1.890091705322,52.486785888671,0.0 -1.890091705322,52.486785888671,0.0 -1.890091705322,52.486785888671,0.0 -1.890091705322,52.486785888671,0.0 -1.890091705322,52.486785888671,0.0 -1.890091705322,52.486785888671,0.0 -1.890091705322,52.486785888671,0.0 -1.890091705322,52.486785888671,0.0 -1.890091705322,52.486785888671,0.0 -1.890064811706,52.486808776855,0.0 -1.890064811706,52.486808776855,0.0 -1.890064811706,52.486808776855,0.0 -1.890064811706,52.486808776855,0.0 -1.890064811706,52.486808776855,0.0 -1.890064811706,52.486808776855,0.0 -1.890064811706,52.486808776855,0.0 -1.890064811706,52.486808776855,0.0 -1.890064811706,52.486808776855,0.0 -1.890064811706,52.486808776855,0.0 -1.890064811706,52.486808776855,0.0 -1.890048122406,52.486804962158,0.0 -1.890048122406,52.486804962158,0.0 -1.890048122406,52.486804962158,0.0 -1.890048122406,52.486804962158,0.0 -1.890048122406,52.486804962158,0.0 -1.890048122406,52.486804962158,0.0 -1.890048122406,52.486804962158,0.0 -1.890048122406,52.486804962158,0.0 -1.890048122406,52.486804962158,0.0 -1.890048122406,52.486804962158,0.0 -1.890048122406,52.486804962158,0.0 -1.890001678466,52.486804962158,0.0 -1.890001678466,52.486804962158,0.0 -1.890001678466,52.486804962158,0.0 -1.890001678466,52.486804962158,0.0 -1.890001678466,52.486804962158,0.0 -1.890001678466,52.486804962158,0.0 -1.890001678466,52.486804962158,0.0 -1.890001678466,52.486804962158,0.0 -1.890001678466,52.486804962158,0.0 -1.890001678466,52.486804962158,0.0 -1.890001678466,52.486804962158,0.0 -1.889963150024,52.486804962158,0.0 -1.889963150024,52.486804962158,0.0 -1.889963150024,52.486804962158,0.0 -1.889963150024,52.486804962158,0.0 -1.889963150024,52.486804962158,0.0 -1.889963150024,52.486804962158,0.0 -1.889963150024,52.486804962158,0.0 -1.889963150024,52.486804962158,0.0 -1.889963150024,52.486804962158,0.0 -1.889963150024,52.486804962158,0.0 -1.889963150024,52.486804962158,0.0 -1.88993320465,52.486804962158,0.0 -1.88993320465,52.486804962158,0.0 -1.88993320465,52.486804962158,0.0 -1.88993320465,52.486804962158,0.0 -1.88993320465,52.486804962158,0.0 -1.88993320465,52.486804962158,0.0 -1.88993320465,52.486804962158,0.0 -1.88993320465,52.486804962158,0.0 -1.88993320465,52.486804962158,0.0 -1.88993320465,52.486804962158,0.0 -1.88993320465,52.486804962158,0.0 -1.88993320465,52.486804962158,0.0 -1.88993320465,52.486804962158,0.0 -1.88993320465,52.486804962158,0.0 -1.88993320465,52.486804962158,0.0 -1.88993320465,52.486804962158,0.0 -1.88993320465,52.486804962158,0.0 -1.88993320465,52.486804962158,0.0 -1.88993320465,52.486804962158,0.0 -1.88993320465,52.486804962158,0.0 -1.88993320465,52.486804962158,0.0 -1.88993320465,52.486804962158,0.0 -1.889849758148,52.48680114746,0.0 -1.889849758148,52.48680114746,0.0 -1.889849758148,52.48680114746,0.0 -1.889849758148,52.48680114746,0.0 -1.889849758148,52.48680114746,0.0 -1.889849758148,52.48680114746,0.0 -1.889849758148,52.48680114746,0.0 -1.889849758148,52.48680114746,0.0 -1.889849758148,52.48680114746,0.0 -1.889849758148,52.48680114746,0.0 -1.889849758148,52.48680114746,0.0 -1.889849758148,52.48680114746,0.0 -1.889849758148,52.48680114746,0.0 -1.889849758148,52.48680114746,0.0 -1.889849758148,52.48680114746,0.0 -1.889849758148,52.48680114746,0.0 -1.889849758148,52.48680114746,0.0 -1.889849758148,52.48680114746,0.0 -1.889849758148,52.48680114746,0.0 -1.889849758148,52.48680114746,0.0 -1.889849758148,52.48680114746,0.0 -1.889849758148,52.48680114746,0.0 -1.889849758148,52.48680114746,0.0 -1.889849758148,52.48680114746,0.0 -1.889849758148,52.48680114746,0.0 -1.889849758148,52.48680114746,0.0 -1.889849758148,52.48680114746,0.0 -1.889849758148,52.48680114746,0.0 -1.889849758148,52.48680114746,0.0 -1.889849758148,52.48680114746,0.0 -1.889849758148,52.48680114746,0.0 -1.889849758148,52.48680114746,0.0 -1.889849758148,52.48680114746,0.0 -1.889849758148,52.48680114746,0.0 -1.889849758148,52.48680114746,0.0 -1.889849758148,52.48680114746,0.0 -1.889849758148,52.48680114746,0.0 -1.889849758148,52.48680114746,0.0 -1.889849758148,52.48680114746,0.0 -1.889849758148,52.48680114746,0.0 -1.889849758148,52.48680114746,0.0 -1.889849758148,52.48680114746,0.0 -1.889849758148,52.48680114746,0.0 -1.889849758148,52.48680114746,0.0 -1.889753246307,52.486824035644,0.0 -1.889753246307,52.486824035644,0.0 -1.889753246307,52.486824035644,0.0 -1.889753246307,52.486824035644,0.0 -1.889753246307,52.486824035644,0.0 -1.889753246307,52.486824035644,0.0 -1.889753246307,52.486824035644,0.0 -1.889753246307,52.486824035644,0.0 -1.889753246307,52.486824035644,0.0 -1.889753246307,52.486824035644,0.0 -1.889753246307,52.486824035644,0.0 -1.889753246307,52.486824035644,0.0 -1.889753246307,52.486824035644,0.0 -1.889753246307,52.486824035644,0.0 -1.889753246307,52.486824035644,0.0 -1.889753246307,52.486824035644,0.0 -1.889753246307,52.486824035644,0.0 -1.889753246307,52.486824035644,0.0 -1.889753246307,52.486824035644,0.0 -1.889753246307,52.486824035644,0.0 -1.889753246307,52.486824035644,0.0 -1.889753246307,52.486824035644,0.0 -1.889753246307,52.486824035644,0.0 -1.889753246307,52.486824035644,0.0 -1.889753246307,52.486824035644,0.0 -1.889753246307,52.486824035644,0.0 -1.889753246307,52.486824035644,0.0 -1.889753246307,52.486824035644,0.0 -1.889753246307,52.486824035644,0.0 -1.889753246307,52.486824035644,0.0 -1.889753246307,52.486824035644,0.0 -1.889753246307,52.486824035644,0.0 -1.889753246307,52.486824035644,0.0 -1.889753246307,52.486824035644,0.0 -1.889753246307,52.486824035644,0.0 -1.889753246307,52.486824035644,0.0 -1.889753246307,52.486824035644,0.0 -1.889753246307,52.486824035644,0.0 -1.889753246307,52.486824035644,0.0 -1.889753246307,52.486824035644,0.0 -1.889753246307,52.486824035644,0.0 -1.889753246307,52.486824035644,0.0 -1.889753246307,52.486824035644,0.0 -1.889753246307,52.486824035644,0.0 -1.889753246307,52.486824035644,0.0 -1.889753246307,52.486824035644,0.0 -1.889753246307,52.486824035644,0.0 -1.889753246307,52.486824035644,0.0 -1.889753246307,52.486824035644,0.0 -1.889753246307,52.486824035644,0.0 -1.889753246307,52.486824035644,0.0 -1.889753246307,52.486824035644,0.0 -1.889753246307,52.486824035644,0.0 -1.889753246307,52.486824035644,0.0 -1.889753246307,52.486824035644,0.0 -1.889753246307,52.486824035644,0.0 -1.889753246307,52.486824035644,0.0 -1.889753246307,52.486824035644,0.0 -1.889753246307,52.486824035644,0.0 -1.889753246307,52.486824035644,0.0 -1.889753246307,52.486824035644,0.0 -1.889753246307,52.486824035644,0.0 -1.889753246307,52.486824035644,0.0 -1.889753246307,52.486824035644,0.0 -1.889753246307,52.486824035644,0.0 -1.889753246307,52.486824035644,0.0 -1.889753246307,52.486824035644,0.0 -1.889753246307,52.486824035644,0.0 -1.889753246307,52.486824035644,0.0 -1.889753246307,52.486824035644,0.0 -1.889753246307,52.486824035644,0.0 -1.889753246307,52.486824035644,0.0 -1.889753246307,52.486824035644,0.0 -1.889753246307,52.486824035644,0.0 -1.889753246307,52.486824035644,0.0 -1.889753246307,52.486824035644,0.0 -1.889753246307,52.486824035644,0.0 -1.889753246307,52.486824035644,0.0 -1.889753246307,52.486824035644,0.0 -1.889753246307,52.486824035644,0.0 -1.889753246307,52.486824035644,0.0 -1.889753246307,52.486824035644,0.0 -1.889753246307,52.486824035644,0.0 -1.889753246307,52.486824035644,0.0 -1.889753246307,52.486824035644,0.0 -1.889753246307,52.486824035644,0.0 -1.889753246307,52.486824035644,0.0 -1.889753246307,52.486824035644,0.0 -1.889753246307,52.486824035644,0.0 -1.889753246307,52.486824035644,0.0 -1.889753246307,52.486824035644,0.0 -1.889753246307,52.486824035644,0.0 -1.889753246307,52.486824035644,0.0 -1.889753246307,52.486824035644,0.0 -1.889753246307,52.486824035644,0.0 -1.889753246307,52.486824035644,0.0 -1.889753246307,52.486824035644,0.0 -1.889753246307,52.486824035644,0.0 -1.889753246307,52.486824035644,0.0 -1.889753246307,52.486824035644,0.0 -1.889753246307,52.486824035644,0.0 -1.889753246307,52.486824035644,0.0 -1.889753246307,52.486824035644,0.0 -1.889753246307,52.486824035644,0.0 -1.889753246307,52.486824035644,0.0 -1.889753246307,52.486824035644,0.0 -1.889753246307,52.486824035644,0.0 -1.889753246307,52.486824035644,0.0 -1.889753246307,52.486824035644,0.0 -1.889753246307,52.486824035644,0.0 -1.889753246307,52.486824035644,0.0 -1.889753246307,52.486824035644,0.0 -1.889753246307,52.486824035644,0.0 -1.889753246307,52.486824035644,0.0 -1.889753246307,52.486824035644,0.0 -1.889753246307,52.486824035644,0.0 -1.889753246307,52.486824035644,0.0 -1.889753246307,52.486824035644,0.0 -1.889753246307,52.486824035644,0.0 -1.889753246307,52.486824035644,0.0 -1.889753246307,52.486824035644,0.0 -1.889753246307,52.486824035644,0.0 -1.889753246307,52.486824035644,0.0 -1.889753246307,52.486824035644,0.0 -1.889753246307,52.486824035644,0.0 -1.889753246307,52.486824035644,0.0 -1.889753246307,52.486824035644,0.0 -1.889753246307,52.486824035644,0.0 -1.889753246307,52.486824035644,0.0 -1.889753246307,52.486824035644,0.0 -1.889753246307,52.486824035644,0.0 -1.889753246307,52.486824035644,0.0 -1.889753246307,52.486824035644,0.0 -1.889753246307,52.486824035644,0.0 -1.889753246307,52.486824035644,0.0 -1.889753246307,52.486824035644,0.0 -1.889753246307,52.486824035644,0.0 -1.889753246307,52.486824035644,0.0 -1.889753246307,52.486824035644,0.0 -1.889753246307,52.486824035644,0.0 -1.889753246307,52.486824035644,0.0 -1.889753246307,52.486824035644,0.0 -1.889753246307,52.486824035644,0.0 -1.889753246307,52.486824035644,0.0 -1.889753246307,52.486824035644,0.0 -1.889753246307,52.486824035644,0.0 -1.889753246307,52.486824035644,0.0 -1.889753246307,52.486824035644,0.0 -1.889753246307,52.486824035644,0.0 -1.889753246307,52.486824035644,0.0 -1.889389801025,52.486919403076,0.0 -1.889389801025,52.486919403076,0.0 -1.889389801025,52.486919403076,0.0 -1.889389801025,52.486919403076,0.0 -1.889389801025,52.486919403076,0.0 -1.889389801025,52.486919403076,0.0 -1.889389801025,52.486919403076,0.0 -1.889389801025,52.486919403076,0.0 -1.889389801025,52.486919403076,0.0 -1.889389801025,52.486919403076,0.0 -1.889389801025,52.486919403076,0.0 -1.889389801025,52.486919403076,0.0 -1.889389801025,52.486919403076,0.0 -1.889389801025,52.486919403076,0.0 -1.889389801025,52.486919403076,0.0 -1.889389801025,52.486919403076,0.0 -1.889389801025,52.486919403076,0.0 -1.889389801025,52.486919403076,0.0 -1.889389801025,52.486919403076,0.0 -1.889389801025,52.486919403076,0.0 -1.889389801025,52.486919403076,0.0 -1.889389801025,52.486919403076,0.0 -1.889389801025,52.486919403076,0.0 -1.889389801025,52.486919403076,0.0 -1.889389801025,52.486919403076,0.0 -1.889389801025,52.486919403076,0.0 -1.889389801025,52.486919403076,0.0 -1.889458179473,52.487003326416,0.0 -1.889458179473,52.487003326416,0.0 -1.889458179473,52.487003326416,0.0 -1.889458179473,52.487003326416,0.0 -1.889458179473,52.487003326416,0.0 -1.889458179473,52.487003326416,0.0 -1.889458179473,52.487003326416,0.0 -1.889458179473,52.487003326416,0.0 -1.889458179473,52.487003326416,0.0 -1.889458179473,52.487003326416,0.0 -1.889458179473,52.487003326416,0.0 -1.889458179473,52.487003326416,0.0 -1.889458179473,52.487003326416,0.0 -1.889458179473,52.487003326416,0.0 -1.889458179473,52.487003326416,0.0 -1.889458179473,52.487003326416,0.0 -1.889458179473,52.487003326416,0.0 -1.889451599121,52.487033843994,0.0 -1.889451599121,52.487033843994,0.0 -1.889451599121,52.487033843994,0.0 -1.889451599121,52.487033843994,0.0 -1.889451599121,52.487033843994,0.0 -1.889434814453,52.487056732177,0.0 -1.889434814453,52.487056732177,0.0 -1.889434814453,52.487056732177,0.0 -1.889434814453,52.487056732177,0.0 -1.889434814453,52.487056732177,0.0 -1.889434814453,52.487056732177,0.0 -1.889434814453,52.487056732177,0.0 -1.889434814453,52.487056732177,0.0 -1.889434814453,52.487056732177,0.0 -1.889434814453,52.487056732177,0.0 -1.889434814453,52.487056732177,0.0 -1.889434814453,52.487056732177,0.0 -1.889434814453,52.487056732177,0.0 -1.889434814453,52.487056732177,0.0 -1.889434814453,52.487056732177,0.0 -1.889434814453,52.487056732177,0.0 -1.889434814453,52.487056732177,0.0 -1.889434814453,52.487056732177,0.0 -1.889434814453,52.487056732177,0.0 -1.889434814453,52.487056732177,0.0 -1.889434814453,52.487056732177,0.0 -1.889434814453,52.487056732177,0.0 -1.88941822052,52.487121582031,0.0 -1.88941822052,52.487121582031,0.0 -1.88941822052,52.487121582031,0.0 -1.88941822052,52.487121582031,0.0 -1.88941822052,52.487121582031,0.0 -1.88941822052,52.487121582031,0.0 -1.88941822052,52.487121582031,0.0 -1.88941822052,52.487121582031,0.0 -1.88941822052,52.487121582031,0.0 -1.88941822052,52.487121582031,0.0 -1.88941822052,52.487121582031,0.0 -1.88941822052,52.487121582031,0.0 -1.88941822052,52.487121582031,0.0 -1.88941822052,52.487121582031,0.0 -1.88941822052,52.487121582031,0.0 -1.88941822052,52.487121582031,0.0 -1.88941822052,52.487121582031,0.0 -1.88941822052,52.487121582031,0.0 -1.88941822052,52.487121582031,0.0 -1.88941822052,52.487121582031,0.0 -1.88941822052,52.487121582031,0.0 -1.88941822052,52.487121582031,0.0 -1.88941822052,52.487121582031,0.0 -1.88941822052,52.487121582031,0.0 -1.88941822052,52.487121582031,0.0 -1.88941822052,52.487121582031,0.0 -1.88941822052,52.487121582031,0.0 -1.88941822052,52.487121582031,0.0 -1.88941822052,52.487121582031,0.0 -1.88941822052,52.487121582031,0.0 -1.88941822052,52.487121582031,0.0 -1.88941822052,52.487121582031,0.0 -1.88941822052,52.487121582031,0.0 -1.88941822052,52.487121582031,0.0 -1.88941822052,52.487121582031,0.0 -1.88941822052,52.487121582031,0.0 -1.88941822052,52.487121582031,0.0 -1.88941822052,52.487121582031,0.0 -1.88941822052,52.487121582031,0.0 -1.88941822052,52.487121582031,0.0 -1.88941822052,52.487121582031,0.0 -1.88941822052,52.487121582031,0.0 -1.88941822052,52.487121582031,0.0 -1.88941822052,52.487121582031,0.0 -1.88941822052,52.487121582031,0.0 -1.88941822052,52.487121582031,0.0 -1.88941822052,52.487121582031,0.0 -1.88941822052,52.487121582031,0.0 -1.88941822052,52.487121582031,0.0 -1.88941822052,52.487121582031,0.0 -1.88941822052,52.487121582031,0.0 -1.88941822052,52.487121582031,0.0 -1.88941822052,52.487121582031,0.0 -1.88941822052,52.487121582031,0.0 -1.88941822052,52.487121582031,0.0 -1.88941822052,52.487121582031,0.0 -1.88941822052,52.487121582031,0.0 -1.88941822052,52.487121582031,0.0 -1.88941822052,52.487121582031,0.0 -1.88941822052,52.487121582031,0.0 -1.88941822052,52.487121582031,0.0 -1.889148235321,52.487140655517,0.0 -1.889148235321,52.487140655517,0.0 -1.889148235321,52.487140655517,0.0 -1.889148235321,52.487140655517,0.0 -1.889148235321,52.487140655517,0.0 -1.889148235321,52.487140655517,0.0 -1.889148235321,52.487140655517,0.0 -1.889148235321,52.487140655517,0.0 -1.889148235321,52.487140655517,0.0 -1.889148235321,52.487140655517,0.0 -1.889148235321,52.487140655517,0.0 -1.889148235321,52.487140655517,0.0 -1.889148235321,52.487140655517,0.0 -1.889148235321,52.487140655517,0.0 -1.889148235321,52.487140655517,0.0 -1.889148235321,52.487140655517,0.0 -1.889148235321,52.487140655517,0.0 -1.889148235321,52.487140655517,0.0 -1.889148235321,52.487140655517,0.0 -1.889148235321,52.487140655517,0.0 -1.889148235321,52.487140655517,0.0 -1.889148235321,52.487140655517,0.0 -1.889148235321,52.487140655517,0.0 -1.889148235321,52.487140655517,0.0 -1.889148235321,52.487140655517,0.0 -1.889148235321,52.487140655517,0.0 -1.888901615142,52.48705291748,0.0 -1.888901615142,52.48705291748,0.0 -1.888901615142,52.48705291748,0.0 -1.888901615142,52.48705291748,0.0 -1.888901615142,52.48705291748,0.0 -1.888901615142,52.48705291748,0.0 -1.888901615142,52.48705291748,0.0 -1.888901615142,52.48705291748,0.0 -1.888901615142,52.48705291748,0.0 -1.888901615142,52.48705291748,0.0 -1.888901615142,52.48705291748,0.0 -1.888846588134,52.487018585205,0.0 -1.888846588134,52.487018585205,0.0 -1.888846588134,52.487018585205,0.0 -1.888846588134,52.487018585205,0.0 -1.888846588134,52.487018585205,0.0 -1.888846588134,52.487018585205,0.0 -1.888846588134,52.487018585205,0.0 -1.888846588134,52.487018585205,0.0 -1.888846588134,52.487018585205,0.0 -1.888846588134,52.487018585205,0.0 -1.888846588134,52.487018585205,0.0 -1.888846588134,52.487018585205,0.0 -1.888846588134,52.487018585205,0.0 -1.888846588134,52.487018585205,0.0 -1.888846588134,52.487018585205,0.0 -1.888846588134,52.487018585205,0.0 -1.888846588134,52.487018585205,0.0 -1.888846588134,52.487018585205,0.0 -1.888846588134,52.487018585205,0.0 -1.888846588134,52.487018585205,0.0 -1.888846588134,52.487018585205,0.0 -1.888846588134,52.487018585205,0.0 -1.888846588134,52.487018585205,0.0 -1.888846588134,52.487018585205,0.0 -1.888846588134,52.487018585205,0.0 -1.888846588134,52.487018585205,0.0 -1.888846588134,52.487018585205,0.0 -1.888846588134,52.487018585205,0.0 -1.888846588134,52.487018585205,0.0 -1.888846588134,52.487018585205,0.0 -1.888846588134,52.487018585205,0.0 -1.888846588134,52.487018585205,0.0 -1.888846588134,52.487018585205,0.0 -1.888846588134,52.487018585205,0.0 -1.888846588134,52.487018585205,0.0 -1.888846588134,52.487018585205,0.0 -1.888846588134,52.487018585205,0.0 -1.888846588134,52.487018585205,0.0 -1.888846588134,52.487018585205,0.0 -1.888846588134,52.487018585205,0.0 -1.888846588134,52.487018585205,0.0 -1.888846588134,52.487018585205,0.0 -1.888846588134,52.487018585205,0.0 -1.888846588134,52.487018585205,0.0 -1.888846588134,52.487018585205,0.0 -1.888846588134,52.487018585205,0.0 -1.888846588134,52.487018585205,0.0 -1.888846588134,52.487018585205,0.0 -1.888846588134,52.487018585205,0.0 -1.888846588134,52.487018585205,0.0 -1.888846588134,52.487018585205,0.0 -1.888846588134,52.487018585205,0.0 -1.888846588134,52.487018585205,0.0 -1.888846588134,52.487018585205,0.0 -1.888846588134,52.487018585205,0.0 -1.888846588134,52.487018585205,0.0 -1.888846588134,52.487018585205,0.0 -1.888846588134,52.487018585205,0.0 -1.888846588134,52.487018585205,0.0 -1.888846588134,52.487018585205,0.0 -1.888846588134,52.487018585205,0.0 -1.888846588134,52.487018585205,0.0 -1.888846588134,52.487018585205,0.0 -1.888846588134,52.487018585205,0.0 -1.888846588134,52.487018585205,0.0 -1.888846588134,52.487018585205,0.0 -1.888846588134,52.487018585205,0.0 -1.888846588134,52.487018585205,0.0 -1.888846588134,52.487018585205,0.0 -1.888846588134,52.487018585205,0.0 -1.888846588134,52.487018585205,0.0 -1.888846588134,52.487018585205,0.0 -1.888846588134,52.487018585205,0.0 -1.888846588134,52.487018585205,0.0 -1.888846588134,52.487018585205,0.0 -1.888846588134,52.487018585205,0.0 -1.888846588134,52.487018585205,0.0 -1.888846588134,52.487018585205,0.0 -1.888846588134,52.487018585205,0.0 -1.888846588134,52.487018585205,0.0 -1.888846588134,52.487018585205,0.0 -1.888846588134,52.487018585205,0.0 -1.888846588134,52.487018585205,0.0 -1.888846588134,52.487018585205,0.0 -1.888846588134,52.487018585205,0.0 -1.888846588134,52.487018585205,0.0 -1.888846588134,52.487018585205,0.0 -1.888846588134,52.487018585205,0.0 -1.888846588134,52.487018585205,0.0 -1.888846588134,52.487018585205,0.0 -1.888846588134,52.487018585205,0.0 -1.888846588134,52.487018585205,0.0 -1.888846588134,52.487018585205,0.0 -1.888846588134,52.487018585205,0.0 -1.888846588134,52.487018585205,0.0 -1.888846588134,52.487018585205,0.0 -1.888846588134,52.487018585205,0.0 -1.888846588134,52.487018585205,0.0 -1.888846588134,52.487018585205,0.0 -1.888846588134,52.487018585205,0.0 -1.888846588134,52.487018585205,0.0 -1.888846588134,52.487018585205,0.0 -1.888846588134,52.487018585205,0.0 -1.888846588134,52.487018585205,0.0 -1.888846588134,52.487018585205,0.0 -1.888846588134,52.487018585205,0.0 -1.888846588134,52.487018585205,0.0 -1.888846588134,52.487018585205,0.0 -1.888846588134,52.487018585205,0.0 -1.888846588134,52.487018585205,0.0 -1.888846588134,52.487018585205,0.0 -1.888846588134,52.487018585205,0.0 -1.888846588134,52.487018585205,0.0 -1.888846588134,52.487018585205,0.0 -1.888846588134,52.487018585205,0.0 -1.888846588134,52.487018585205,0.0 -1.888846588134,52.487018585205,0.0 -1.888846588134,52.487018585205,0.0 -1.888846588134,52.487018585205,0.0 -1.888846588134,52.487018585205,0.0 -1.888846588134,52.487018585205,0.0 -1.888846588134,52.487018585205,0.0 -1.888846588134,52.487018585205,0.0 -1.888846588134,52.487018585205,0.0 -1.888846588134,52.487018585205,0.0 -1.888846588134,52.487018585205,0.0 -1.888846588134,52.487018585205,0.0 -1.888846588134,52.487018585205,0.0 -1.888846588134,52.487018585205,0.0 -1.888846588134,52.487018585205,0.0 -1.888846588134,52.487018585205,0.0 -1.888846588134,52.487018585205,0.0 -1.888846588134,52.487018585205,0.0 -1.888846588134,52.487018585205,0.0 -1.888846588134,52.487018585205,0.0 -1.888846588134,52.487018585205,0.0 -1.888846588134,52.487018585205,0.0 -1.888846588134,52.487018585205,0.0 -1.888846588134,52.487018585205,0.0 -1.888846588134,52.487018585205,0.0 -1.888846588134,52.487018585205,0.0 -1.888846588134,52.487018585205,0.0 -1.888846588134,52.487018585205,0.0 -1.888846588134,52.487018585205,0.0 -1.888846588134,52.487018585205,0.0 -1.888846588134,52.487018585205,0.0 -1.888846588134,52.487018585205,0.0 -1.888846588134,52.487018585205,0.0 -1.888846588134,52.487018585205,0.0 -1.888846588134,52.487018585205,0.0 -1.888846588134,52.487018585205,0.0 -1.888846588134,52.487018585205,0.0 -1.888846588134,52.487018585205,0.0 -1.888846588134,52.487018585205,0.0 -1.888846588134,52.487018585205,0.0 -1.888846588134,52.487018585205,0.0 -1.888846588134,52.487018585205,0.0 -1.888846588134,52.487018585205,0.0 -1.888846588134,52.487018585205,0.0 -1.888846588134,52.487018585205,0.0 -1.888846588134,52.487018585205,0.0 -1.888846588134,52.487018585205,0.0 -1.888846588134,52.487018585205,0.0 -1.888846588134,52.487018585205,0.0 -1.888846588134,52.487018585205,0.0 -1.888846588134,52.487018585205,0.0 -1.888846588134,52.487018585205,0.0 -1.888846588134,52.487018585205,0.0 -1.888846588134,52.487018585205,0.0 -1.888846588134,52.487018585205,0.0 -1.888846588134,52.487018585205,0.0 -1.888846588134,52.487018585205,0.0 -1.888846588134,52.487018585205,0.0 -1.888846588134,52.487018585205,0.0 -1.888846588134,52.487018585205,0.0 -1.888846588134,52.487018585205,0.0 -1.888846588134,52.487018585205,0.0 -1.888846588134,52.487018585205,0.0 -1.888846588134,52.487018585205,0.0 -1.888846588134,52.487018585205,0.0 -1.888846588134,52.487018585205,0.0 -1.888846588134,52.487018585205,0.0 -1.888846588134,52.487018585205,0.0 -1.888846588134,52.487018585205,0.0 -1.888846588134,52.487018585205,0.0 -1.888846588134,52.487018585205,0.0 -1.888846588134,52.487018585205,0.0 -1.888846588134,52.487018585205,0.0 -1.888846588134,52.487018585205,0.0 -1.888846588134,52.487018585205,0.0 -1.888846588134,52.487018585205,0.0 -1.888846588134,52.487018585205,0.0 -1.888846588134,52.487018585205,0.0 -1.888846588134,52.487018585205,0.0 -1.888846588134,52.487018585205,0.0 -1.888846588134,52.487018585205,0.0 -1.888846588134,52.487018585205,0.0 -1.888846588134,52.487018585205,0.0 -1.888846588134,52.487018585205,0.0 -1.888846588134,52.487018585205,0.0 -1.888846588134,52.487018585205,0.0 -1.888846588134,52.487018585205,0.0 -1.888846588134,52.487018585205,0.0 -1.888846588134,52.487018585205,0.0 -1.888846588134,52.487018585205,0.0 -1.888846588134,52.487018585205,0.0 -1.888846588134,52.487018585205,0.0 -1.888846588134,52.487018585205,0.0 -1.888846588134,52.487018585205,0.0 -1.888846588134,52.487018585205,0.0 -1.888846588134,52.487018585205,0.0 -1.888846588134,52.487018585205,0.0 -1.888846588134,52.487018585205,0.0 -1.888846588134,52.487018585205,0.0 -1.888846588134,52.487018585205,0.0 -1.888846588134,52.487018585205,0.0 -1.888846588134,52.487018585205,0.0 -1.888846588134,52.487018585205,0.0 -1.888846588134,52.487018585205,0.0 -1.888846588134,52.487018585205,0.0 -1.888846588134,52.487018585205,0.0 -1.888846588134,52.487018585205,0.0 -1.888846588134,52.487018585205,0.0 -1.888846588134,52.487018585205,0.0 -1.888846588134,52.487018585205,0.0 -1.888846588134,52.487018585205,0.0 -1.888846588134,52.487018585205,0.0 -1.888846588134,52.487018585205,0.0 -1.888846588134,52.487018585205,0.0 -1.888846588134,52.487018585205,0.0 -1.888846588134,52.487018585205,0.0 -1.888846588134,52.487018585205,0.0 -1.888846588134,52.487018585205,0.0 -1.888846588134,52.487018585205,0.0 -1.888846588134,52.487018585205,0.0 -1.888846588134,52.487018585205,0.0 -1.888846588134,52.487018585205,0.0 -1.888846588134,52.487018585205,0.0 -1.888846588134,52.487018585205,0.0 -1.888846588134,52.487018585205,0.0 -1.888846588134,52.487018585205,0.0 -1.888846588134,52.487018585205,0.0 -1.888846588134,52.487018585205,0.0 -1.888846588134,52.487018585205,0.0 -1.888846588134,52.487018585205,0.0 -1.888846588134,52.487018585205,0.0 -1.888846588134,52.487018585205,0.0 -1.888846588134,52.487018585205,0.0 -1.888846588134,52.487018585205,0.0 -1.888846588134,52.487018585205,0.0 -1.888846588134,52.487018585205,0.0 -1.888846588134,52.487018585205,0.0 -1.888846588134,52.487018585205,0.0 -1.888846588134,52.487018585205,0.0 -1.888846588134,52.487018585205,0.0 -1.888846588134,52.487018585205,0.0 -1.888846588134,52.487018585205,0.0 -1.888846588134,52.487018585205,0.0 -1.888846588134,52.487018585205,0.0 -1.888846588134,52.487018585205,0.0 -1.888846588134,52.487018585205,0.0 -1.888846588134,52.487018585205,0.0 -1.888846588134,52.487018585205,0.0 -1.888846588134,52.487018585205,0.0 -1.888846588134,52.487018585205,0.0 -1.888846588134,52.487018585205,0.0 -1.888846588134,52.487018585205,0.0 -1.888846588134,52.487018585205,0.0 -1.888846588134,52.487018585205,0.0 -1.888846588134,52.487018585205,0.0 -1.888846588134,52.487018585205,0.0 -1.888846588134,52.487018585205,0.0 -1.888846588134,52.487018585205,0.0 -1.888846588134,52.487018585205,0.0 -1.888846588134,52.487018585205,0.0 -1.888846588134,52.487018585205,0.0 -1.888846588134,52.487018585205,0.0 -1.888846588134,52.487018585205,0.0 -1.888846588134,52.487018585205,0.0 -1.888729858398,52.486942291259,0.0 -1.888729858398,52.486942291259,0.0 -1.888729858398,52.486942291259,0.0 -1.888729858398,52.486942291259,0.0 -1.888729858398,52.486942291259,0.0 -1.888729858398,52.486942291259,0.0 -1.888729858398,52.486942291259,0.0 -1.888729858398,52.486942291259,0.0 -1.888729858398,52.486942291259,0.0 -1.888729858398,52.486942291259,0.0 -1.888729858398,52.486942291259,0.0 -1.888729858398,52.486942291259,0.0 -1.888729858398,52.486942291259,0.0 -1.888729858398,52.486942291259,0.0 -1.888729858398,52.486942291259,0.0 -1.888729858398,52.486942291259,0.0 -1.888729858398,52.486942291259,0.0 -1.888729858398,52.486942291259,0.0 -1.888729858398,52.486942291259,0.0 -1.888729858398,52.486942291259,0.0 -1.888729858398,52.486942291259,0.0 -1.888729858398,52.486942291259,0.0 -1.888729858398,52.486942291259,0.0 -1.888729858398,52.486942291259,0.0 -1.888729858398,52.486942291259,0.0 -1.888729858398,52.486942291259,0.0 -1.888729858398,52.486942291259,0.0 -1.888729858398,52.486942291259,0.0 -1.888729858398,52.486942291259,0.0 -1.888729858398,52.486942291259,0.0 -1.888729858398,52.486942291259,0.0 -1.888729858398,52.486942291259,0.0 -1.888729858398,52.486942291259,0.0 -1.888729858398,52.486942291259,0.0 -1.888729858398,52.486942291259,0.0 -1.888729858398,52.486942291259,0.0 -1.888729858398,52.486942291259,0.0 -1.888729858398,52.486942291259,0.0 -1.888729858398,52.486942291259,0.0 -1.888729858398,52.486942291259,0.0 -1.888729858398,52.486942291259,0.0 -1.888729858398,52.486942291259,0.0 -1.888729858398,52.486942291259,0.0 -1.888729858398,52.486942291259,0.0 -1.888729858398,52.486942291259,0.0 -1.888729858398,52.486942291259,0.0 -1.888729858398,52.486942291259,0.0 -1.888729858398,52.486942291259,0.0 -1.888729858398,52.486942291259,0.0 -1.888729858398,52.486942291259,0.0 -1.888729858398,52.486942291259,0.0 -1.888729858398,52.486942291259,0.0 -1.888729858398,52.486942291259,0.0 -1.888729858398,52.486942291259,0.0 -1.888729858398,52.486942291259,0.0 -1.888729858398,52.486942291259,0.0 -1.888729858398,52.486942291259,0.0 -1.888729858398,52.486942291259,0.0 -1.888729858398,52.486942291259,0.0 -1.888729858398,52.486942291259,0.0 -1.888729858398,52.486942291259,0.0 -1.888729858398,52.486942291259,0.0 -1.888729858398,52.486942291259,0.0 -1.888729858398,52.486942291259,0.0 -1.888801574707,52.486827850341,0.0 -1.888801574707,52.486827850341,0.0 -1.888801574707,52.486827850341,0.0 -1.888801574707,52.486827850341,0.0 -1.888801574707,52.486827850341,0.0 -1.888801574707,52.486827850341,0.0 -1.888801574707,52.486827850341,0.0 -1.888801574707,52.486827850341,0.0 -1.888801574707,52.486827850341,0.0 -1.888801574707,52.486827850341,0.0 -1.888801574707,52.486827850341,0.0 -1.888813209533,52.486808776855,0.0 -1.888813209533,52.486808776855,0.0 -1.888813209533,52.486808776855,0.0 -1.888813209533,52.486808776855,0.0 -1.888813209533,52.486808776855,0.0 -1.888813209533,52.486808776855,0.0 -1.888813209533,52.486808776855,0.0 -1.888813209533,52.486808776855,0.0 -1.888813209533,52.486808776855,0.0 -1.888813209533,52.486808776855,0.0 -1.888813209533,52.486808776855,0.0 -1.888823127746,52.486797332763,0.0 -1.888823127746,52.486797332763,0.0 -1.888823127746,52.486797332763,0.0 -1.888823127746,52.486797332763,0.0 -1.888823127746,52.486797332763,0.0 -1.888823127746,52.486797332763,0.0 -1.888823127746,52.486797332763,0.0 -1.888823127746,52.486797332763,0.0 -1.888823127746,52.486797332763,0.0 -1.888823127746,52.486797332763,0.0 -1.888823127746,52.486797332763,0.0 -1.888856697082,52.486785888671,0.0 -1.888856697082,52.486785888671,0.0 -1.888856697082,52.486785888671,0.0 -1.888856697082,52.486785888671,0.0 -1.888856697082,52.486785888671,0.0 -1.888856697082,52.486785888671,0.0 -1.888856697082,52.486785888671,0.0 -1.888856697082,52.486785888671,0.0 -1.888856697082,52.486785888671,0.0 -1.888856697082,52.486785888671,0.0 -1.888856697082,52.486785888671,0.0 -1.888906574249,52.486770629882,0.0 -1.888906574249,52.486770629882,0.0 -1.888906574249,52.486770629882,0.0 -1.888906574249,52.486770629882,0.0 -1.888906574249,52.486770629882,0.0 -1.888906574249,52.486770629882,0.0 -1.888906574249,52.486770629882,0.0 -1.888906574249,52.486770629882,0.0 -1.888906574249,52.486770629882,0.0 -1.888906574249,52.486770629882,0.0 -1.888906574249,52.486770629882,0.0 -1.888949775695,52.486763000488,0.0 -1.888949775695,52.486763000488,0.0 -1.888949775695,52.486763000488,0.0 -1.888949775695,52.486763000488,0.0 -1.888949775695,52.486763000488,0.0 -1.888949775695,52.486763000488,0.0 -1.888949775695,52.486763000488,0.0 -1.888949775695,52.486763000488,0.0 -1.888949775695,52.486763000488,0.0 -1.888949775695,52.486763000488,0.0 -1.888949775695,52.486763000488,0.0 -1.888988304138,52.486751556396,0.0 -1.888988304138,52.486751556396,0.0 -1.888988304138,52.486751556396,0.0 -1.888988304138,52.486751556396,0.0 -1.888988304138,52.486751556396,0.0 -1.888988304138,52.486751556396,0.0 -1.888988304138,52.486751556396,0.0 -1.888988304138,52.486751556396,0.0 -1.888988304138,52.486751556396,0.0 -1.888988304138,52.486751556396,0.0 -1.888988304138,52.486751556396,0.0 -1.888988304138,52.486751556396,0.0 -1.888988304138,52.486751556396,0.0 -1.888988304138,52.486751556396,0.0 -1.888988304138,52.486751556396,0.0 -1.888988304138,52.486751556396,0.0 -1.888988304138,52.486751556396,0.0 -1.888988304138,52.486751556396,0.0 -1.888988304138,52.486751556396,0.0 -1.888988304138,52.486751556396,0.0 -1.888988304138,52.486751556396,0.0 -1.888988304138,52.486751556396,0.0 -1.888988304138,52.486751556396,0.0 -1.888988304138,52.486751556396,0.0 -1.888988304138,52.486751556396,0.0 -1.888988304138,52.486751556396,0.0 -1.888988304138,52.486751556396,0.0 -1.888988304138,52.486751556396,0.0 -1.888988304138,52.486751556396,0.0 -1.888988304138,52.486751556396,0.0 -1.888988304138,52.486751556396,0.0 -1.888988304138,52.486751556396,0.0 -1.888988304138,52.486751556396,0.0 -1.888988304138,52.486751556396,0.0 -1.888988304138,52.486751556396,0.0 -1.888988304138,52.486751556396,0.0 -1.888988304138,52.486751556396,0.0 -1.888988304138,52.486751556396,0.0 -1.888988304138,52.486751556396,0.0 -1.888988304138,52.486751556396,0.0 -1.889129734039,52.486736297607,0.0 -1.889129734039,52.486736297607,0.0 -1.889129734039,52.486736297607,0.0 -1.889129734039,52.486736297607,0.0 -1.889129734039,52.486736297607,0.0 -1.889129734039,52.486736297607,0.0 -1.889129734039,52.486736297607,0.0 -1.889129734039,52.486736297607,0.0 -1.889129734039,52.486736297607,0.0 -1.889129734039,52.486736297607,0.0 -1.889129734039,52.486736297607,0.0 -1.889189815521,52.486747741699,0.0 -1.889189815521,52.486747741699,0.0 -1.889189815521,52.486747741699,0.0 -1.889189815521,52.486747741699,0.0 -1.889189815521,52.486747741699,0.0 -1.889189815521,52.486747741699,0.0 -1.889189815521,52.486747741699,0.0 -1.889189815521,52.486747741699,0.0 -1.889189815521,52.486747741699,0.0 -1.889189815521,52.486747741699,0.0 -1.889189815521,52.486747741699,0.0 -1.889189815521,52.486747741699,0.0 -1.889189815521,52.486747741699,0.0 -1.889189815521,52.486747741699,0.0 -1.889189815521,52.486747741699,0.0 -1.889189815521,52.486747741699,0.0 -1.889189815521,52.486747741699,0.0 -1.889189815521,52.486747741699,0.0 -1.889189815521,52.486747741699,0.0 -1.889189815521,52.486747741699,0.0 -1.889189815521,52.486747741699,0.0 -1.889189815521,52.486747741699,0.0 -1.889189815521,52.486747741699,0.0 -1.889189815521,52.486747741699,0.0 -1.889189815521,52.486747741699,0.0 -1.889189815521,52.486747741699,0.0 -1.889189815521,52.486747741699,0.0 -1.889189815521,52.486747741699,0.0 -1.889189815521,52.486747741699,0.0 -1.889189815521,52.486747741699,0.0 -1.889189815521,52.486747741699,0.0 -1.889189815521,52.486747741699,0.0 -1.889189815521,52.486747741699,0.0 -1.889189815521,52.486747741699,0.0 -1.889189815521,52.486747741699,0.0 -1.889189815521,52.486747741699,0.0 -1.889189815521,52.486747741699,0.0 -1.889189815521,52.486747741699,0.0 -1.889189815521,52.486747741699,0.0 -1.889189815521,52.486747741699,0.0 -1.889189815521,52.486747741699,0.0 -1.889189815521,52.486747741699,0.0 -1.889189815521,52.486747741699,0.0 -1.889189815521,52.486747741699,0.0 -1.889189815521,52.486747741699,0.0 -1.889189815521,52.486747741699,0.0 -1.889189815521,52.486747741699,0.0 -1.889189815521,52.486747741699,0.0 -1.889189815521,52.486747741699,0.0 -1.889189815521,52.486747741699,0.0 -1.889361572265,52.486721038818,0.0 -1.889361572265,52.486721038818,0.0 -1.889361572265,52.486721038818,0.0 -1.889361572265,52.486721038818,0.0 -1.889361572265,52.486721038818,0.0 -1.889361572265,52.486721038818,0.0 -1.889361572265,52.486721038818,0.0 -1.889361572265,52.486721038818,0.0 -1.889361572265,52.486721038818,0.0 -1.889361572265,52.486721038818,0.0 -1.889361572265,52.486721038818,0.0 -1.889361572265,52.486721038818,0.0 -1.889361572265,52.486721038818,0.0 -1.889361572265,52.486721038818,0.0 -1.889361572265,52.486721038818,0.0 -1.889378166198,52.486698150634,0.0 -1.889378166198,52.486698150634,0.0 -1.889378166198,52.486698150634,0.0 -1.889378166198,52.486698150634,0.0 -1.889378166198,52.486698150634,0.0 -1.889378166198,52.486698150634,0.0 -1.889378166198,52.486698150634,0.0 -1.889378166198,52.486698150634,0.0 -1.889378166198,52.486698150634,0.0 -1.889378166198,52.486698150634,0.0 -1.889378166198,52.486698150634,0.0 -1.889381599426,52.486667633056,0.0 -1.889381599426,52.486667633056,0.0 -1.889381599426,52.486667633056,0.0 -1.889381599426,52.486667633056,0.0 -1.889381599426,52.486667633056,0.0 -1.889381599426,52.486667633056,0.0 -1.889381599426,52.486667633056,0.0 -1.889381599426,52.486667633056,0.0 -1.889381599426,52.486667633056,0.0 -1.889381599426,52.486667633056,0.0 -1.889381599426,52.486667633056,0.0 -1.889381599426,52.486667633056,0.0 -1.889381599426,52.486667633056,0.0 -1.889381599426,52.486667633056,0.0 -1.889381599426,52.486667633056,0.0 -1.889381599426,52.486667633056,0.0 -1.889381599426,52.486667633056,0.0 -1.889381599426,52.486667633056,0.0 -1.889381599426,52.486667633056,0.0 -1.889381599426,52.486667633056,0.0 -1.889381599426,52.486667633056,0.0 -1.889381599426,52.486667633056,0.0 -1.889381599426,52.486667633056,0.0 -1.889381599426,52.486667633056,0.0 -1.889381599426,52.486667633056,0.0 -1.889381599426,52.486667633056,0.0 -1.889381599426,52.486667633056,0.0 -1.889381599426,52.486667633056,0.0 -1.889381599426,52.486667633056,0.0 -1.889381599426,52.486667633056,0.0 -1.889381599426,52.486667633056,0.0 -1.889381599426,52.486667633056,0.0 -1.889381599426,52.486667633056,0.0 -1.889381599426,52.486667633056,0.0 -1.889381599426,52.486667633056,0.0 -1.889381599426,52.486667633056,0.0 -1.889381599426,52.486667633056,0.0 -1.889381599426,52.486667633056,0.0 -1.889381599426,52.486667633056,0.0 -1.889381599426,52.486667633056,0.0 -1.889381599426,52.486667633056,0.0 -1.889381599426,52.486667633056,0.0 -1.889381599426,52.486667633056,0.0 -1.889381599426,52.486667633056,0.0 -1.889381599426,52.486667633056,0.0 -1.889381599426,52.486667633056,0.0 -1.889381599426,52.486667633056,0.0 -1.889381599426,52.486667633056,0.0 -1.889381599426,52.486667633056,0.0 -1.889381599426,52.486667633056,0.0 -1.889381599426,52.486667633056,0.0 -1.889381599426,52.486667633056,0.0 -1.889381599426,52.486667633056,0.0 -1.889381599426,52.486667633056,0.0 -1.889381599426,52.486667633056,0.0 -1.889381599426,52.486667633056,0.0 -1.889381599426,52.486667633056,0.0 -1.889381599426,52.486667633056,0.0 -1.889381599426,52.486667633056,0.0 -1.889381599426,52.486667633056,0.0 -1.889381599426,52.486667633056,0.0 -1.889381599426,52.486667633056,0.0 -1.889381599426,52.486667633056,0.0 -1.889381599426,52.486667633056,0.0 -1.889381599426,52.486667633056,0.0 -1.889381599426,52.486667633056,0.0 -1.889381599426,52.486667633056,0.0 -1.889381599426,52.486667633056,0.0 -1.889381599426,52.486667633056,0.0 -1.889381599426,52.486667633056,0.0 -1.889381599426,52.486667633056,0.0 -1.889381599426,52.486667633056,0.0 -1.889381599426,52.486667633056,0.0 -1.889381599426,52.486667633056,0.0 -1.889381599426,52.486667633056,0.0 -1.889381599426,52.486667633056,0.0 -1.889381599426,52.486667633056,0.0 -1.889381599426,52.486667633056,0.0 -1.889381599426,52.486667633056,0.0 -1.889381599426,52.486667633056,0.0 -1.889381599426,52.486667633056,0.0 -1.889381599426,52.486667633056,0.0 -1.889456653594,52.486526489257,0.0 -1.889456653594,52.486526489257,0.0 -1.889456653594,52.486526489257,0.0 -1.889456653594,52.486526489257,0.0 -1.889456653594,52.486526489257,0.0 -1.889456653594,52.486526489257,0.0 -1.889456653594,52.486526489257,0.0 -1.889456653594,52.486526489257,0.0 -1.889456653594,52.486526489257,0.0 -1.889456653594,52.486526489257,0.0 -1.889456653594,52.486526489257,0.0 -1.889456653594,52.486526489257,0.0 -1.889456653594,52.486526489257,0.0 -1.889456653594,52.486526489257,0.0 -1.889456653594,52.486526489257,0.0 -1.889456653594,52.486526489257,0.0 -1.889456653594,52.486526489257,0.0 -1.889456653594,52.486526489257,0.0 -1.889456653594,52.486526489257,0.0 -1.889456653594,52.486526489257,0.0 -1.889456653594,52.486526489257,0.0 -1.889456653594,52.486526489257,0.0 -1.889456653594,52.486526489257,0.0 -1.889456653594,52.486526489257,0.0 -1.889456653594,52.486526489257,0.0 -1.889456653594,52.486526489257,0.0 -1.889456653594,52.486526489257,0.0 -1.889456653594,52.486526489257,0.0 -1.889456653594,52.486526489257,0.0 -1.889456653594,52.486526489257,0.0 -1.889456653594,52.486526489257,0.0 -1.889456653594,52.486526489257,0.0 -1.889456653594,52.486526489257,0.0 -1.889456653594,52.486526489257,0.0 -1.889456653594,52.486526489257,0.0 -1.889456653594,52.486526489257,0.0 -1.889456653594,52.486526489257,0.0 -1.889456653594,52.486526489257,0.0 -1.889456653594,52.486526489257,0.0 -1.889456653594,52.486526489257,0.0 -1.889456653594,52.486526489257,0.0 -1.889456653594,52.486526489257,0.0 -1.889456653594,52.486526489257,0.0 -1.889456653594,52.486526489257,0.0 -1.889456653594,52.486526489257,0.0 -1.889456653594,52.486526489257,0.0 -1.889456653594,52.486526489257,0.0 -1.889456653594,52.486526489257,0.0 -1.889456653594,52.486526489257,0.0 -1.889456653594,52.486526489257,0.0 -1.889456653594,52.486526489257,0.0 -1.889456653594,52.486526489257,0.0 -1.889456653594,52.486526489257,0.0 -1.889456653594,52.486526489257,0.0 -1.889456653594,52.486526489257,0.0 -1.889456653594,52.486526489257,0.0 -1.889456653594,52.486526489257,0.0 -1.889456653594,52.486526489257,0.0 -1.889456653594,52.486526489257,0.0 -1.889456653594,52.486526489257,0.0 -1.889456653594,52.486526489257,0.0 -1.889456653594,52.486526489257,0.0 -1.889456653594,52.486526489257,0.0 -1.889456653594,52.486526489257,0.0 -1.889456653594,52.486526489257,0.0 -1.889456653594,52.486526489257,0.0 -1.889743232727,52.486541748046,0.0 -1.889743232727,52.486541748046,0.0 -1.889743232727,52.486541748046,0.0 -1.889743232727,52.486541748046,0.0 -1.889743232727,52.486541748046,0.0 -1.889743232727,52.486541748046,0.0 -1.889743232727,52.486541748046,0.0 -1.889743232727,52.486541748046,0.0 -1.889743232727,52.486541748046,0.0 -1.889743232727,52.486541748046,0.0 -1.889743232727,52.486541748046,0.0 -1.889768218994,52.486545562744,0.0 -1.889768218994,52.486545562744,0.0 -1.889768218994,52.486545562744,0.0 -1.889768218994,52.486545562744,0.0 -1.889768218994,52.486545562744,0.0 -1.889768218994,52.486545562744,0.0 -1.889768218994,52.486545562744,0.0 -1.889768218994,52.486545562744,0.0 -1.889768218994,52.486545562744,0.0 -1.889768218994,52.486545562744,0.0 -1.889768218994,52.486545562744,0.0 -1.889776611328,52.486553192138,0.0 -1.889776611328,52.486553192138,0.0 -1.889776611328,52.486553192138,0.0 -1.889776611328,52.486553192138,0.0 -1.889776611328,52.486553192138,0.0 -1.889776611328,52.486553192138,0.0 -1.889776611328,52.486553192138,0.0 -1.889776611328,52.486553192138,0.0 -1.889776611328,52.486553192138,0.0 -1.889776611328,52.486553192138,0.0 -1.889776611328,52.486553192138,0.0 -1.889776611328,52.486553192138,0.0 -1.889776611328,52.486553192138,0.0 -1.889776611328,52.486553192138,0.0 -1.889776611328,52.486553192138,0.0 -1.889776611328,52.486553192138,0.0 -1.889776611328,52.486553192138,0.0 -1.889776611328,52.486553192138,0.0 -1.889776611328,52.486553192138,0.0 -1.889776611328,52.486553192138,0.0 -1.889776611328,52.486553192138,0.0 -1.889776611328,52.486553192138,0.0 -1.889774799346,52.48656463623,0.0 -1.889774799346,52.48656463623,0.0 -1.889774799346,52.48656463623,0.0 -1.889774799346,52.48656463623,0.0 -1.889774799346,52.48656463623,0.0 -1.889774799346,52.48656463623,0.0 -1.889774799346,52.48656463623,0.0 -1.889774799346,52.48656463623,0.0 -1.889774799346,52.48656463623,0.0 -1.889774799346,52.48656463623,0.0 -1.889774799346,52.48656463623,0.0 -1.889774799346,52.48656463623,0.0 -1.889774799346,52.48656463623,0.0 -1.889774799346,52.48656463623,0.0 -1.889774799346,52.48656463623,0.0 -1.889774799346,52.48656463623,0.0 -1.889774799346,52.48656463623,0.0 -1.889774799346,52.48656463623,0.0 -1.889774799346,52.48656463623,0.0 -1.889774799346,52.48656463623,0.0 -1.889774799346,52.48656463623,0.0 -1.889774799346,52.48656463623,0.0 -1.889774799346,52.48656463623,0.0 -1.889774799346,52.48656463623,0.0 -1.889774799346,52.48656463623,0.0 -1.889774799346,52.48656463623,0.0 -1.889774799346,52.48656463623,0.0 -1.889886665344,52.486629486083,0.0 -1.889886665344,52.486629486083,0.0 -1.889886665344,52.486629486083,0.0 -1.889886665344,52.486629486083,0.0 -1.889886665344,52.486629486083,0.0 -1.889886665344,52.486629486083,0.0 -1.889886665344,52.486629486083,0.0 -1.889886665344,52.486629486083,0.0 -1.889886665344,52.486629486083,0.0 -1.889886665344,52.486629486083,0.0 -1.889886665344,52.486629486083,0.0 -1.889886665344,52.486629486083,0.0 -1.889886665344,52.486629486083,0.0 -1.889886665344,52.486629486083,0.0 -1.889886665344,52.486629486083,0.0 -1.889886665344,52.486629486083,0.0 -1.889886665344,52.486629486083,0.0 -1.889886665344,52.486629486083,0.0 -1.889886665344,52.486629486083,0.0 -1.889886665344,52.486629486083,0.0 -1.889886665344,52.486629486083,0.0 -1.889886665344,52.486629486083,0.0 -1.889886665344,52.486629486083,0.0 -1.889886665344,52.486629486083,0.0 -1.889886665344,52.486629486083,0.0 -1.889886665344,52.486629486083,0.0 -1.889886665344,52.486629486083,0.0 -1.889886665344,52.486629486083,0.0 -1.889886665344,52.486629486083,0.0 -1.889886665344,52.486629486083,0.0 -1.889886665344,52.486629486083,0.0 -1.889886665344,52.486629486083,0.0 -1.889886665344,52.486629486083,0.0 -1.889903163909,52.486675262451,0.0 -1.889903163909,52.486675262451,0.0 -1.889903163909,52.486675262451,0.0</coordinates>
            </LineString>
        </Placemark>
    </Document>
</kml>
